{
  "links" : {
    "next" : "https://api.nasa.gov/neo/rest/v1/feed?start_date=2006-09-09&end_date=2006-09-09&detailed=true&api_key=t0TVs3DtDT2H8Oy2Zy8m2eVrNsAVKAexjcZXUckd",
    "prev" : "https://api.nasa.gov/neo/rest/v1/feed?start_date=2006-09-07&end_date=2006-09-07&detailed=true&api_key=t0TVs3DtDT2H8Oy2Zy8m2eVrNsAVKAexjcZXUckd",
    "self" : "https://api.nasa.gov/neo/rest/v1/feed?start_date=2006-09-08&end_date=2006-09-08&detailed=true&api_key=t0TVs3DtDT2H8Oy2Zy8m2eVrNsAVKAexjcZXUckd"
  },
  "element_count" : 8,
  "near_earth_objects" : {
    "2006-09-08" : [ {
      "links" : {
        "self" : "https://api.nasa.gov/neo/rest/v1/neo/3545413?api_key=t0TVs3DtDT2H8Oy2Zy8m2eVrNsAVKAexjcZXUckd"
      },
      "neo_reference_id" : "3545413",
      "name" : "(2010 RB)",
      "nasa_jpl_url" : "http://ssd.jpl.nasa.gov/sbdb.cgi?sstr=3545413",
      "absolute_magnitude_h" : 20.1,
      "estimated_diameter" : {
        "kilometers" : {
          "estimated_diameter_min" : 0.2538370294,
          "estimated_diameter_max" : 0.5675968529
        },
        "meters" : {
          "estimated_diameter_min" : 253.8370293645,
          "estimated_diameter_max" : 567.5968528656
        },
        "miles" : {
          "estimated_diameter_min" : 0.1577269688,
          "estimated_diameter_max" : 0.3526882241
        },
        "feet" : {
          "estimated_diameter_min" : 832.7986794202,
          "estimated_diameter_max" : 1862.1944587557
        }
      },
      "is_potentially_hazardous_asteroid" : false,
      "close_approach_data" : [ {
        "close_approach_date" : "2006-09-08",
        "epoch_date_close_approach" : 1157698800000,
        "relative_velocity" : {
          "kilometers_per_second" : "24.5084611229",
          "kilometers_per_hour" : "88230.460042517",
          "miles_per_hour" : "54822.9766858629"
        },
        "miss_distance" : {
          "astronomical" : "0.3962702113",
          "lunar" : "154.1491088867",
          "kilometers" : "59281180",
          "miles" : "36835620"
        },
        "orbiting_body" : "Earth"
      } ],
      "orbital_data" : {
        "orbit_id" : "17",
        "orbit_determination_date" : "2017-04-06 08:56:57",
        "orbit_uncertainty" : "1",
        "minimum_orbit_intersection" : ".261406",
        "jupiter_tisserand_invariant" : "3.006",
        "epoch_osculation" : "2458000.5",
        "eccentricity" : ".6210947265950283",
        "semi_major_axis" : "2.558855824682106",
        "inclination" : "27.72545259088185",
        "ascending_node_longitude" : "155.8971637451485",
        "orbital_period" : "1495.089364597794",
        "perihelion_distance" : ".969563965855078",
        "perihelion_argument" : "260.1028627509315",
        "aphelion_distance" : "4.148147683509135",
        "perihelion_time" : "2458518.225820770528",
        "mean_anomaly" : "235.3376889096326",
        "mean_motion" : ".2407882823090288",
        "equinox" : "J2000"
      }
    }, {
      "links" : {
        "self" : "https://api.nasa.gov/neo/rest/v1/neo/3547677?api_key=t0TVs3DtDT2H8Oy2Zy8m2eVrNsAVKAexjcZXUckd"
      },
      "neo_reference_id" : "3547677",
      "name" : "(2010 ST16)",
      "nasa_jpl_url" : "http://ssd.jpl.nasa.gov/sbdb.cgi?sstr=3547677",
      "absolute_magnitude_h" : 23.3,
      "estimated_diameter" : {
        "kilometers" : {
          "estimated_diameter_min" : 0.058150704,
          "estimated_diameter_max" : 0.130028927
        },
        "meters" : {
          "estimated_diameter_min" : 58.1507039646,
          "estimated_diameter_max" : 130.0289270043
        },
        "miles" : {
          "estimated_diameter_min" : 0.0361331611,
          "estimated_diameter_max" : 0.0807962044
        },
        "feet" : {
          "estimated_diameter_min" : 190.7831555951,
          "estimated_diameter_max" : 426.6041048727
        }
      },
      "is_potentially_hazardous_asteroid" : false,
      "close_approach_data" : [ {
        "close_approach_date" : "2006-09-08",
        "epoch_date_close_approach" : 1157698800000,
        "relative_velocity" : {
          "kilometers_per_second" : "11.3739856322",
          "kilometers_per_hour" : "40946.3482758592",
          "miles_per_hour" : "25442.4684606304"
        },
        "miss_distance" : {
          "astronomical" : "0.1252839689",
          "lunar" : "48.7354660034",
          "kilometers" : "18742216",
          "miles" : "11645873"
        },
        "orbiting_body" : "Earth"
      } ],
      "orbital_data" : {
        "orbit_id" : "13",
        "orbit_determination_date" : "2017-04-06 08:56:30",
        "orbit_uncertainty" : "0",
        "minimum_orbit_intersection" : ".0978528",
        "jupiter_tisserand_invariant" : "3.184",
        "epoch_osculation" : "2458000.5",
        "eccentricity" : ".5908220561506172",
        "semi_major_axis" : "2.513768412766655",
        "inclination" : "6.655483817901032",
        "ascending_node_longitude" : "20.33906269874213",
        "orbital_period" : "1455.74840838641",
        "perihelion_distance" : "1.028578590449386",
        "perihelion_argument" : "292.201375741175",
        "aphelion_distance" : "3.998958235083924",
        "perihelion_time" : "2458325.390610813639",
        "mean_anomaly" : "279.6560207662859",
        "mean_motion" : ".2472954790306339",
        "equinox" : "J2000"
      }
    }, {
      "links" : {
        "self" : "https://api.nasa.gov/neo/rest/v1/neo/3607078?api_key=t0TVs3DtDT2H8Oy2Zy8m2eVrNsAVKAexjcZXUckd"
      },
      "neo_reference_id" : "3607078",
      "name" : "(2012 OT5)",
      "nasa_jpl_url" : "http://ssd.jpl.nasa.gov/sbdb.cgi?sstr=3607078",
      "absolute_magnitude_h" : 21.8,
      "estimated_diameter" : {
        "kilometers" : {
          "estimated_diameter_min" : 0.1160259082,
          "estimated_diameter_max" : 0.2594418179
        },
        "meters" : {
          "estimated_diameter_min" : 116.0259082094,
          "estimated_diameter_max" : 259.4418179074
        },
        "miles" : {
          "estimated_diameter_min" : 0.0720951346,
          "estimated_diameter_max" : 0.1612096218
        },
        "feet" : {
          "estimated_diameter_min" : 380.6624406898,
          "estimated_diameter_max" : 851.1870938635
        }
      },
      "is_potentially_hazardous_asteroid" : false,
      "close_approach_data" : [ {
        "close_approach_date" : "2006-09-08",
        "epoch_date_close_approach" : 1157698800000,
        "relative_velocity" : {
          "kilometers_per_second" : "4.4347191559",
          "kilometers_per_hour" : "15964.9889611863",
          "miles_per_hour" : "9920.0232797993"
        },
        "miss_distance" : {
          "astronomical" : "0.4854786775",
          "lunar" : "188.8511962891",
          "kilometers" : "72626576",
          "miles" : "45128060"
        },
        "orbiting_body" : "Earth"
      } ],
      "orbital_data" : {
        "orbit_id" : "27",
        "orbit_determination_date" : "2016-06-09 06:18:17",
        "orbit_uncertainty" : "0",
        "minimum_orbit_intersection" : ".177955",
        "jupiter_tisserand_invariant" : "4.314",
        "epoch_osculation" : "2457600.5",
        "eccentricity" : ".2594904787285975",
        "semi_major_axis" : "1.602333024850909",
        "inclination" : "5.753529724319114",
        "ascending_node_longitude" : "129.1850197964802",
        "orbital_period" : "740.8454237616753",
        "perihelion_distance" : "1.186542861149705",
        "perihelion_argument" : "147.7655723352698",
        "aphelion_distance" : "2.018123188552113",
        "perihelion_time" : "2457584.902259084434",
        "mean_anomaly" : "7.57943094403214",
        "mean_motion" : ".4859313271749511",
        "equinox" : "J2000"
      }
    } ]
  }
}